OBJECT_NAME,OBJECT_ID,EPOCH,MEAN_MOTION,ECCENTRICITY,INCLINATION,RA_OF_ASC_NODE,ARG_OF_PERICENTER,MEAN_ANOMALY,EPHEMERIS_TYPE,CLASSIFICATION_TYPE,NORAD_CAT_ID,ELEMENT_SET_NO,REV_AT_EPOCH,BSTAR,MEAN_MOTION_DOT,MEAN_MOTION_DDOT
LDPE-2,2022-144A,2026-07-18T14:12:29.382336,1.00545085,.00024585,5.6726,63.2811,107.9559,211.0612,0,U,54219,999,1215,0,-.1E-7,0
EUTELSAT HOTBIRD 13G,2022-146A,2026-07-18T21:52:42.550176,1.00272335,.00020991,0.0560,239.5738,297.4122,100.9032,0,U,54225,999,778,0,.81E-6,0
ZHONGXING-19,2022-148A,2026-07-18T17:25:19.238304,1.00271894,.00031946,0.0184,63.1249,75.0289,222.8776,0,U,54230,999,1369,0,-.88E-6,0
GALAXY 31 (G-31),2022-153A,2026-07-18T14:07:38.839008,1.00272302,.00011295,0.0206,94.6525,24.7798,267.8499,0,U,54243,999,744,0,.6E-7,0
GALAXY 32 (G-32),2022-153B,2026-07-18T13:51:38.716416,1.00272389,.00013906,0.0135,54.9552,353.3136,5.0201,0,U,54244,999,1345,0,-.181E-5,0
EUTELSAT 10B,2022-157A,2026-07-18T18:50:38.706144,1.00268028,.00016728,0.0591,96.0295,6.7888,126.3781,0,U,54259,999,1334,0,.61E-6,0
GALAXY 35 (G-35),2022-170A,2026-07-18T13:51:38.716416,1.00272219,.00019073,0.0155,93.0372,23.3164,294.8224,0,U,54741,999,1320,0,-.169E-5,0
GALAXY 36 (G-36),2022-170B,2026-07-18T13:51:38.716416,1.00271822,.00026577,0.0183,141.4952,316.9631,316.8281,0,U,54742,999,1308,0,-.192E-5,0
METEOSAT-12 (MTG-I1),2022-170C,2026-07-18T18:58:38.631360,1.00268791,.00039699,0.7290,20.3648,81.2614,119.2576,0,U,54743,999,1329,0,-.15E-6,0
SHIJIAN-23 (SJ-23),2023-002A,2026-07-18T19:51:30.123936,1.00075370,.0003409,3.7969,77.9147,274.1099,9.0286,0,U,55131,999,1282,0,-.364E-5,0
APSTAR-6E,2023-005A,2026-07-18T17:26:32.089056,1.00269790,.00026471,0.0138,259.8324,293.4126,138.9092,0,U,55239,999,1900,0,0,0
USA 342,2023-008A,2026-07-15T08:20:54.831840,1.00268904,.0000237,0.0068,33.1422,23.5747,25.6345,0,U,55263,999,1279,0,0,0
LDPE-3A,2023-008B,2026-07-18T17:14:05.313984,0.99148875,.00015937,2.4283,81.2748,72.4873,164.8316,0,U,55264,999,1212,0,-.253E-5,0
ELEKTRO-L 4,2023-016A,2026-07-18T17:10:45.297120,1.00270775,.00015594,0.1119,278.6976,257.2003,184.0845,0,U,55506,999,1264,0,-.65E-6,0
AMAZONAS NEXUS,2023-017A,2026-07-18T19:31:38.724096,1.00270759,.00044314,0.0342,43.7693,45.3761,79.3730,0,U,55508,999,736,0,-.289E-5,0
ZHONGXING-26,2023-023A,2026-07-18T12:06:33.276384,1.00271220,.0003368,0.0638,71.5640,34.1118,137.3754,0,U,55686,999,1254,0,-.361E-5,0
LUCH-5X (OLYMP-K 2),2023-031A,2026-07-18T19:53:03.777216,1.00272916,.0001205,0.0278,94.8629,193.9310,8.0831,0,U,55841,999,1225,0,.26E-6,0
GAOFEN-13 02,2023-036A,2026-07-18T15:04:38.792928,1.00273891,.00036167,1.0289,5.0329,337.8426,327.9768,0,U,55912,999,1240,0,-.225E-5,0
SES-18,2023-038A,2026-07-18T13:59:38.658048,1.00270613,.00007851,0.0452,246.7102,311.4766,205.0011,0,U,55970,999,1241,0,-.108E-5,0
SES-19,2023-038B,2026-07-18T17:43:02.538912,1.00272089,.00017068,0.0481,266.4937,215.4928,305.3900,0,U,55971,999,1240,0,.81E-6,0
INTELSAT 40E (IS-40E),2023-052A,2026-07-18T13:51:38.716416,1.00271616,.00023343,0.0152,95.1290,48.5603,269.5989,0,U,56174,999,1213,0,-.181E-5,0
VIASAT-3 F1,2023-060A,2026-07-18T13:51:38.716416,1.00270635,.00006889,0.0124,33.5504,57.0492,324.7361,0,U,56370,999,1174,0,0,0
ARCTURUS,2023-060B,2026-07-18T23:01:57.798336,1.00592977,.00012151,2.8532,79.5438,132.8412,173.2508,0,U,56371,999,1177,0,-.358E-5,0
GS-1,2023-060C,2026-07-18T01:22:21.842400,1.00265953,.00033219,2.8021,79.4641,279.7673,46.4746,0,U,56372,999,784,0,-.231E-5,0
BEIDOU-3 G4,2023-066A,2026-07-18T17:18:42.372000,1.00271600,.00050009,0.4577,339.9779,184.9198,171.3668,0,U,56564,999,1170,0,-.287E-5,0
ARABSAT-7B (BADR-8),2023-075A,2026-07-18T22:07:16.836960,1.00271021,.00033645,0.0740,31.3147,1.4565,261.7528,0,U,56757,999,1143,0,.138E-5,0
NVS-01 (IRNSS-1J),2023-076A,2026-07-18T17:15:42.659136,1.00277063,.00030584,2.0933,242.9051,19.5721,62.4094,0,U,56759,999,1143,0,-.342E-5,0
NUSANTARA TIGA (SATRIA),2023-086A,2026-07-18T17:20:27.203712,1.00268275,.00021528,0.0359,13.1394,318.8043,10.6883,0,U,57045,999,1007,0,-.242E-5,0
H2SAT (HEINRICH HERTZ),2023-093A,2026-07-18T02:18:38.678400,1.00270990,.00001682,0.0259,101.2408,31.9153,198.0918,0,U,57213,999,1122,0,-.7E-7,0
SYRACUSE 4B,2023-093B,2026-07-18T02:26:38.643360,1.00271740,.0000241,0.0189,56.3024,200.5939,69.2046,0,U,57214,999,727,0,-.62E-6,0
JUPITER 3 (ECHOSTAR 24),2023-108A,2026-07-18T10:35:45.690720,1.00270341,.00011742,0.0148,50.0823,69.0454,240.8647,0,U,57479,999,1095,0,-.157E-5,0
