LDPE-2                  
1 54219U 22144A   26199.59200674 -.00000001  00000+0  00000+0 0  9994
2 54219   5.6726  63.2811 0002458 107.9559 211.0612  1.00545085 12155
EUTELSAT HOTBIRD 13G    
1 54225U 22146A   26199.91160359  .00000081  00000+0  00000+0 0  9991
2 54225   0.0560 239.5738 0002099 297.4122 100.9032  1.00272335  7785
ZHONGXING-19            
1 54230U 22148A   26199.72591711 -.00000088  00000+0  00000+0 0  9996
2 54230   0.0184  63.1249 0003194  75.0289 222.8776  1.00271894 13697
GALAXY 31 (G-31)        
1 54243U 22153A   26199.58864397  .00000006  00000+0  00000+0 0  9992
2 54243   0.0206  94.6525 0001129  24.7798 267.8499  1.00272302  7446
GALAXY 32 (G-32)        
1 54244U 22153B   26199.57753144 -.00000181  00000+0  00000+0 0  9994
2 54244   0.0135  54.9552 0001390 353.3136   5.0201  1.00272389 13450
EUTELSAT 10B            
1 54259U 22157A   26199.78517021  .00000061  00000+0  00000+0 0  9995
2 54259   0.0591  96.0295 0001672   6.7888 126.3781  1.00268028 13342
GALAXY 35 (G-35)        
1 54741U 22170A   26199.57753144 -.00000169  00000+0  00000+0 0  9991
2 54741   0.0155  93.0372 0001907  23.3164 294.8224  1.00272219 13205
GALAXY 36 (G-36)        
1 54742U 22170B   26199.57753144 -.00000192  00000+0  00000+0 0  9998
2 54742   0.0183 141.4952 0002657 316.9631 316.8281  1.00271822 13085
METEOSAT-12 (MTG-I1)    
1 54743U 22170C   26199.79072490 -.00000015  00000+0  00000+0 0  9995
2 54743   0.7290  20.3648 0003969  81.2614 119.2576  1.00268791 13295
SHIJIAN-23 (SJ-23)      
1 55131U 23002A   26199.82743199 -.00000364  00000+0  00000+0 0  9994
2 55131   3.7969  77.9147 0003409 274.1099   9.0286  1.00075370 12825
APSTAR-6E               
1 55239U 23005A   26199.72676029  .00000000  00000+0  00000+0 0  9998
2 55239   0.0138 259.8324 0002647 293.4126 138.9092  1.00269790 19003
USA 342                 
1 55263U 23008A   26196.34785685  .00000000  00000+0  00000+0 0  9992
2 55263   0.0068  33.1422 0000237  23.5747  25.6345  1.00268904 12796
LDPE-3A                 
1 55264U 23008B   26199.71811706 -.00000253  00000+0  00000+0 0  9992
2 55264   2.4283  81.2748 0001593  72.4873 164.8316  0.99148875 12128
ELEKTRO-L 4             
1 55506U 23016A   26199.71580205 -.00000065  00000+0  00000+0 0  9998
2 55506   0.1119 278.6976 0001559 257.2003 184.0845  1.00270775 12641
AMAZONAS NEXUS          
1 55508U 23017A   26199.81364264 -.00000289  00000+0  00000+0 0  9995
2 55508   0.0342  43.7693 0004431  45.3761  79.3730  1.00270759  7360
ZHONGXING-26            
1 55686U 23023A   26199.50455181 -.00000361  00000+0  00000+0 0  9995
2 55686   0.0638  71.5640 0003368  34.1118 137.3754  1.00271220 12547
LUCH-5X (OLYMP-K 2)     
1 55841U 23031A   26199.82851594  .00000026  00000+0  00000+0 0  9997
2 55841   0.0278  94.8629 0001205 193.9310   8.0831  1.00272916 12252
GAOFEN-13 02            
1 55912U 23036A   26199.62822677 -.00000225  00000+0  00000+0 0  9991
2 55912   1.0289   5.0329 0003616 337.8426 327.9768  1.00273891 12402
SES-18                  
1 55970U 23038A   26199.58308632 -.00000108  00000+0  00000+0 0  9992
2 55970   0.0452 246.7102 0000785 311.4766 205.0011  1.00270613 12416
SES-19                  
1 55971U 23038B   26199.73822383  .00000081  00000+0  00000+0 0  9993
2 55971   0.0481 266.4937 0001706 215.4928 305.3900  1.00272089 12400
INTELSAT 40E (IS-40E)   
1 56174U 23052A   26199.57753144 -.00000181  00000+0  00000+0 0  9997
2 56174   0.0152  95.1290 0002334  48.5603 269.5989  1.00271616 12136
VIASAT-3 F1             
1 56370U 23060A   26199.57753144  .00000000  00000+0  00000+0 0  9993
2 56370   0.0124  33.5504 0000688  57.0492 324.7361  1.00270635 11742
ARCTURUS                
1 56371U 23060B   26199.95969674 -.00000358  00000+0  00000+0 0  9990
2 56371   2.8532  79.5438 0001215 132.8412 173.2508  1.00592977 11772
GS-1                    
1 56372U 23060C   26199.05719725 -.00000231  00000+0  00000+0 0  9992
2 56372   2.8021  79.4641 0003321 279.7673  46.4746  1.00265953  7840
BEIDOU-3 G4             
1 56564U 23066A   26199.72132375 -.00000287  00000+0  00000+0 0  9996
2 56564   0.4577 339.9779 0005000 184.9198 171.3668  1.00271600 11701
ARABSAT-7B (BADR-8)     
1 56757U 23075A   26199.92172265  .00000138  00000+0  00000+0 0  9998
2 56757   0.0740  31.3147 0003364   1.4565 261.7528  1.00271021 11433
NVS-01 (IRNSS-1J)       
1 56759U 23076A   26199.71924374 -.00000342  00000+0  00000+0 0  9992
2 56759   2.0933 242.9051 0003058  19.5721  62.4094  1.00277063 11435
NUSANTARA TIGA (SATRIA) 
1 57045U 23086A   26199.72253708 -.00000242  00000+0  00000+0 0  9998
2 57045   0.0359  13.1394 0002152 318.8043  10.6883  1.00268275 10073
H2SAT (HEINRICH HERTZ)  
1 57213U 23093A   26199.09628100 -.00000007  00000+0  00000+0 0  9994
2 57213   0.0259 101.2408 0000168  31.9153 198.0918  1.00270990 11229
SYRACUSE 4B             
1 57214U 23093B   26199.10183615 -.00000062  00000+0  00000+0 0  9995
2 57214   0.0189  56.3024 0000241 200.5939  69.2046  1.00271740  7279
JUPITER 3 (ECHOSTAR 24) 
1 57479U 23108A   26199.44150105 -.00000157  00000+0  00000+0 0  9995
2 57479   0.0148  50.0823 0001174  69.0454 240.8647  1.00270341 10950
